BRO-5                   
1 51061U 22002CF  26201.27719649  .00008724  00000+0  16265-3 0  9998
2 51061  97.2972 275.2786 0005947 184.5730 175.5468 15.49040375251373
BRO-6                   
1 52422U 22047AE  26201.28388589  .00027478  00000+0  44401-3 0  9995
2 52422  97.3380 293.0295 0002895 280.7366  79.3561 15.52831856236289
BRO-8                   
1 55011U 23001C   26201.29435873  .00021105  00000+0  36514-3 0  9990
2 55011  97.3176 266.9986 0004310  20.5171 339.6254 15.50958167197339
BRO-11                  
1 58264U 23174J   26201.26351255  .00002722  00000+0  10339-3 0  9993
2 58264  97.3890 277.8077 0012020  92.3971 267.8645 15.27617452149807
BRO-13                  
1 59107U 24043K   26201.32092830  .00001053  00000+0  97560-4 0  9992
2 59107  97.8537 332.4524 0007428 242.3055 117.7413 14.96662214129577
BRO-12                  
1 59108U 24043L   26201.31165237  .00001152  00000+0  10554-3 0  9991
2 59108  97.8519 332.6130 0007008 234.7705 125.2861 14.96902599129590
BRO-14                  
1 60551U 24149CM  26201.16563452  .00000966  00000+0  90638-4 0  9990
2 60551  97.6864 276.3502 0006367   2.4377 357.6874 14.96245891104924
BRO-15                  
1 60553U 24149CP  26201.14837954  .00000704  00000+0  67504-4 0  9997
2 60553  97.6789 275.9042 0007203 348.3264  11.7789 14.96226501104934
BRO-16                  
1 62654U 25009AX  26200.77584140  .00001844  00000+0  78751-4 0  9993
2 62654  97.4050 280.8613 0002474 144.6662 215.4740 15.24146428 83768
BRO-18                  
1 64550U 25135Y   26201.25333828  .00002230  00000+0  10019-3 0  9991
2 64550  97.4654 316.0345 0002631 109.4596 250.6925 15.22195206 59900
BRO-17                  
1 66672U 25276G   26201.13944286  .00001674  00000+0  85213-4 0  9997
2 66672  97.4178 273.6109 0005371 237.4247 122.6469 15.18175108 35395
BRO-20                  
1 66674U 25276J   26200.71949461  .00001541  00000+0  78324-4 0  9990
2 66674  97.4158 273.1873 0004889 242.3708 117.7031 15.18340597 35338
BRO-19                  
1 68422U 26067G   26201.12029837  .00002081  00000+0  10268-3 0  9996
2 68422  97.4495 159.1110 0002728 102.8346 257.3193 15.19009585 16946
BRO-21                  
1 69007U 26100AD  26200.67853719  .00002591  00000+0  11770-3 0  9992
2 69007  97.4001  98.0395 0006427 310.4108  49.6566 15.21643824 11740
BRO-22                  
1 69504U 26132C   26201.11134656  .00001636  00000+0  13664-3 0  9994
2 69504  97.6823 264.3681 0017128 163.0968 197.0830 14.99822855  5717
