{"fetched_at":"2026-07-20T18:29:13.166Z","source":"https://celestrak.org/NORAD/elements/gp.php?NAME=BRO&FORMAT=JSON","constellation":"unseenlabs","records":[{"OBJECT_NAME":"BRO-5","OBJECT_ID":"2022-002CF","EPOCH":"2026-07-20T06:39:09.776736","CLASSIFICATION_TYPE":"U","MEAN_MOTION":15.49040375,"ECCENTRICITY":0.00059474,"INCLINATION":97.2972,"RA_OF_ASC_NODE":275.2786,"ARG_OF_PERICENTER":184.573,"MEAN_ANOMALY":175.5468,"EPHEMERIS_TYPE":0,"NORAD_CAT_ID":51061,"ELEMENT_SET_NO":999,"REV_AT_EPOCH":25137,"BSTAR":0.00016264583,"MEAN_MOTION_DOT":0.00008724,"MEAN_MOTION_DDOT":0},{"OBJECT_NAME":"BRO-6","OBJECT_ID":"2022-047AE","EPOCH":"2026-07-20T06:48:47.740896","CLASSIFICATION_TYPE":"U","MEAN_MOTION":15.52831856,"ECCENTRICITY":0.00028953,"INCLINATION":97.338,"RA_OF_ASC_NODE":293.0295,"ARG_OF_PERICENTER":280.7366,"MEAN_ANOMALY":79.3561,"EPHEMERIS_TYPE":0,"NORAD_CAT_ID":52422,"ELEMENT_SET_NO":999,"REV_AT_EPOCH":23628,"BSTAR":0.00044400984,"MEAN_MOTION_DOT":0.00027478,"MEAN_MOTION_DDOT":0},{"OBJECT_NAME":"BRO-8","OBJECT_ID":"2023-001C","EPOCH":"2026-07-20T07:03:52.594272","CLASSIFICATION_TYPE":"U","MEAN_MOTION":15.50958167,"ECCENTRICITY":0.00043101,"INCLINATION":97.3176,"RA_OF_ASC_NODE":266.9986,"ARG_OF_PERICENTER":20.5171,"MEAN_ANOMALY":339.6254,"EPHEMERIS_TYPE":0,"NORAD_CAT_ID":55011,"ELEMENT_SET_NO":999,"REV_AT_EPOCH":19733,"BSTAR":0.0003651437,"MEAN_MOTION_DOT":0.00021105,"MEAN_MOTION_DDOT":0},{"OBJECT_NAME":"BRO-11","OBJECT_ID":"2023-174J","EPOCH":"2026-07-20T06:19:27.484320","CLASSIFICATION_TYPE":"U","MEAN_MOTION":15.27617452,"ECCENTRICITY":0.00120204,"INCLINATION":97.389,"RA_OF_ASC_NODE":277.8077,"ARG_OF_PERICENTER":92.3971,"MEAN_ANOMALY":267.8645,"EPHEMERIS_TYPE":0,"NORAD_CAT_ID":58264,"ELEMENT_SET_NO":999,"REV_AT_EPOCH":14980,"BSTAR":0.00010339189,"MEAN_MOTION_DOT":0.00002722,"MEAN_MOTION_DDOT":0},{"OBJECT_NAME":"BRO-13","OBJECT_ID":"2024-043K","EPOCH":"2026-07-20T07:42:08.205120","CLASSIFICATION_TYPE":"U","MEAN_MOTION":14.96662214,"ECCENTRICITY":0.00074288,"INCLINATION":97.8537,"RA_OF_ASC_NODE":332.4524,"ARG_OF_PERICENTER":242.3055,"MEAN_ANOMALY":117.7413,"EPHEMERIS_TYPE":0,"NORAD_CAT_ID":59107,"ELEMENT_SET_NO":999,"REV_AT_EPOCH":12957,"BSTAR":0.000097559588,"MEAN_MOTION_DOT":0.00001053,"MEAN_MOTION_DDOT":0},{"OBJECT_NAME":"BRO-12","OBJECT_ID":"2024-043L","EPOCH":"2026-07-20T07:28:46.764768","CLASSIFICATION_TYPE":"U","MEAN_MOTION":14.96902599,"ECCENTRICITY":0.0007008,"INCLINATION":97.8519,"RA_OF_ASC_NODE":332.613,"ARG_OF_PERICENTER":234.7705,"MEAN_ANOMALY":125.2861,"EPHEMERIS_TYPE":0,"NORAD_CAT_ID":59108,"ELEMENT_SET_NO":999,"REV_AT_EPOCH":12959,"BSTAR":0.00010553683,"MEAN_MOTION_DOT":0.00001152,"MEAN_MOTION_DDOT":0},{"OBJECT_NAME":"BRO-14","OBJECT_ID":"2024-149CM","EPOCH":"2026-07-20T03:58:30.822528","CLASSIFICATION_TYPE":"U","MEAN_MOTION":14.96245891,"ECCENTRICITY":0.00063673,"INCLINATION":97.6864,"RA_OF_ASC_NODE":276.3502,"ARG_OF_PERICENTER":2.4377,"MEAN_ANOMALY":357.6874,"EPHEMERIS_TYPE":0,"NORAD_CAT_ID":60551,"ELEMENT_SET_NO":999,"REV_AT_EPOCH":10492,"BSTAR":0.000090638087,"MEAN_MOTION_DOT":0.00000966,"MEAN_MOTION_DDOT":0},{"OBJECT_NAME":"BRO-15","OBJECT_ID":"2024-149CP","EPOCH":"2026-07-20T03:33:39.992256","CLASSIFICATION_TYPE":"U","MEAN_MOTION":14.96226501,"ECCENTRICITY":0.00072035,"INCLINATION":97.6789,"RA_OF_ASC_NODE":275.9042,"ARG_OF_PERICENTER":348.3264,"MEAN_ANOMALY":11.7789,"EPHEMERIS_TYPE":0,"NORAD_CAT_ID":60553,"ELEMENT_SET_NO":999,"REV_AT_EPOCH":10493,"BSTAR":0.000067504165,"MEAN_MOTION_DOT":0.00000704,"MEAN_MOTION_DDOT":0},{"OBJECT_NAME":"BRO-16","OBJECT_ID":"2025-009AX","EPOCH":"2026-07-19T18:37:12.696960","CLASSIFICATION_TYPE":"U","MEAN_MOTION":15.24146428,"ECCENTRICITY":0.00024746,"INCLINATION":97.405,"RA_OF_ASC_NODE":280.8613,"ARG_OF_PERICENTER":144.6662,"MEAN_ANOMALY":215.474,"EPHEMERIS_TYPE":0,"NORAD_CAT_ID":62654,"ELEMENT_SET_NO":999,"REV_AT_EPOCH":8376,"BSTAR":0.00007875115,"MEAN_MOTION_DOT":0.00001844,"MEAN_MOTION_DDOT":0},{"OBJECT_NAME":"BRO-18","OBJECT_ID":"2025-135Y","EPOCH":"2026-07-20T06:04:48.427392","CLASSIFICATION_TYPE":"U","MEAN_MOTION":15.22195206,"ECCENTRICITY":0.00026316,"INCLINATION":97.4654,"RA_OF_ASC_NODE":316.0345,"ARG_OF_PERICENTER":109.4596,"MEAN_ANOMALY":250.6925,"EPHEMERIS_TYPE":0,"NORAD_CAT_ID":64550,"ELEMENT_SET_NO":999,"REV_AT_EPOCH":5990,"BSTAR":0.00010019227,"MEAN_MOTION_DOT":0.0000223,"MEAN_MOTION_DDOT":0},{"OBJECT_NAME":"BRO-17","OBJECT_ID":"2025-276G","EPOCH":"2026-07-20T03:20:47.863104","CLASSIFICATION_TYPE":"U","MEAN_MOTION":15.18175108,"ECCENTRICITY":0.00053718,"INCLINATION":97.4178,"RA_OF_ASC_NODE":273.6109,"ARG_OF_PERICENTER":237.4247,"MEAN_ANOMALY":122.6469,"EPHEMERIS_TYPE":0,"NORAD_CAT_ID":66672,"ELEMENT_SET_NO":999,"REV_AT_EPOCH":3539,"BSTAR":0.00008521312,"MEAN_MOTION_DOT":0.00001674,"MEAN_MOTION_DDOT":0},{"OBJECT_NAME":"BRO-20","OBJECT_ID":"2025-276J","EPOCH":"2026-07-19T17:16:04.334304","CLASSIFICATION_TYPE":"U","MEAN_MOTION":15.18340597,"ECCENTRICITY":0.00048896,"INCLINATION":97.4158,"RA_OF_ASC_NODE":273.1873,"ARG_OF_PERICENTER":242.3708,"MEAN_ANOMALY":117.7031,"EPHEMERIS_TYPE":0,"NORAD_CAT_ID":66674,"ELEMENT_SET_NO":999,"REV_AT_EPOCH":3533,"BSTAR":0.000078323847,"MEAN_MOTION_DOT":0.00001541,"MEAN_MOTION_DDOT":0},{"OBJECT_NAME":"BRO-19","OBJECT_ID":"2026-067G","EPOCH":"2026-07-20T02:53:13.779168","CLASSIFICATION_TYPE":"U","MEAN_MOTION":15.19009585,"ECCENTRICITY":0.00027281,"INCLINATION":97.4495,"RA_OF_ASC_NODE":159.111,"ARG_OF_PERICENTER":102.8346,"MEAN_ANOMALY":257.3193,"EPHEMERIS_TYPE":0,"NORAD_CAT_ID":68422,"ELEMENT_SET_NO":999,"REV_AT_EPOCH":1694,"BSTAR":0.00010268245,"MEAN_MOTION_DOT":0.00002081,"MEAN_MOTION_DDOT":0},{"OBJECT_NAME":"BRO-21","OBJECT_ID":"2026-100AD","EPOCH":"2026-07-19T16:17:05.613216","CLASSIFICATION_TYPE":"U","MEAN_MOTION":15.21643824,"ECCENTRICITY":0.00064271,"INCLINATION":97.4001,"RA_OF_ASC_NODE":98.0395,"ARG_OF_PERICENTER":310.4108,"MEAN_ANOMALY":49.6566,"EPHEMERIS_TYPE":0,"NORAD_CAT_ID":69007,"ELEMENT_SET_NO":999,"REV_AT_EPOCH":1174,"BSTAR":0.00011770383,"MEAN_MOTION_DOT":0.00002591,"MEAN_MOTION_DDOT":0},{"OBJECT_NAME":"BRO-22","OBJECT_ID":"2026-132C","EPOCH":"2026-07-20T02:40:20.342784","CLASSIFICATION_TYPE":"U","MEAN_MOTION":14.99822855,"ECCENTRICITY":0.00171281,"INCLINATION":97.6823,"RA_OF_ASC_NODE":264.3681,"ARG_OF_PERICENTER":163.0968,"MEAN_ANOMALY":197.083,"EPHEMERIS_TYPE":0,"NORAD_CAT_ID":69504,"ELEMENT_SET_NO":999,"REV_AT_EPOCH":571,"BSTAR":0.0001366431,"MEAN_MOTION_DOT":0.00001636,"MEAN_MOTION_DDOT":0}]}
